ONEWEB-0228             
1 48780U 21045P   24138.73168635  .00000065  00000+0  13992-3 0  9993
2 48780  87.9048  50.5084 0001904  83.5663 276.5684 13.15547457145473
